[{"OBJECT_NAME":"KUIPER-00034","OBJECT_ID":"2025-088Z","EPOCH":"2026-03-03T10:42:54.116352","MEAN_MOTION":14.83539495,"ECCENTRICITY":0.00017508,"INCLINATION":51.9011,"RA_OF_ASC_NODE":115.9571,"ARG_OF_PERICENTER":335.6172,"MEAN_ANOMALY":24.4709,"EPHEMERIS_TYPE":0,"CLASSIFICATION_TYPE":"U","NORAD_CAT_ID":63747,"ELEMENT_SET_NO":999,"REV_AT_EPOCH":4689,"BSTAR":0.00077088744,"MEAN_MOTION_DOT":6.185e-5,"MEAN_MOTION_DDOT":0},{"OBJECT_NAME":"KUIPER-00035","OBJECT_ID":"2025-088AA","EPOCH":"2026-03-03T18:00:01.999296","MEAN_MOTION":14.8322043,"ECCENTRICITY":0.0003973,"INCLINATION":51.8991,"RA_OF_ASC_NODE":140.2727,"ARG_OF_PERICENTER":56.0525,"MEAN_ANOMALY":283.7812,"EPHEMERIS_TYPE":0,"CLASSIFICATION_TYPE":"U","NORAD_CAT_ID":63748,"ELEMENT_SET_NO":999,"REV_AT_EPOCH":289,"BSTAR":0.00089273,"MEAN_MOTION_DOT":7.144e-5,"MEAN_MOTION_DDOT":0},{"OBJECT_NAME":"KUIPER-00037","OBJECT_ID":"2025-088AB","EPOCH":"2026-03-03T10:17:25.133568","MEAN_MOTION":14.79874526,"ECCENTRICITY":7.145e-5,"INCLINATION":51.9001,"RA_OF_ASC_NODE":140.7464,"ARG_OF_PERICENTER":34.8544,"MEAN_ANOMALY":325.2465,"EPHEMERIS_TYPE":0,"CLASSIFICATION_TYPE":"U","NORAD_CAT_ID":63749,"ELEMENT_SET_NO":999,"REV_AT_EPOCH":4738,"BSTAR":0.00091145581,"MEAN_MOTION_DOT":6.725e-5,"MEAN_MOTION_DDOT":0},{"OBJECT_NAME":"KUIPER-00038","OBJECT_ID":"2025-088AC","EPOCH":"2026-03-03T13:55:15.932064","MEAN_MOTION":14.79910562,"ECCENTRICITY":5.45e-5,"INCLINATION":51.9019,"RA_OF_ASC_NODE":125.108,"ARG_OF_PERICENTER":99.604,"MEAN_ANOMALY":260.4984,"EPHEMERIS_TYPE":0,"CLASSIFICATION_TYPE":"U","NORAD_CAT_ID":63750,"ELEMENT_SET_NO":999,"REV_AT_EPOCH":4661,"BSTAR":0.00090384,"MEAN_MOTION_DOT":6.672e-5,"MEAN_MOTION_DDOT":0},{"OBJECT_NAME":"KUIPER-00039","OBJECT_ID":"2025-134A","EPOCH":"2026-03-03T18:07:38.095392","MEAN_MOTION":14.79923731,"ECCENTRICITY":0.0001048,"INCLINATION":51.8999,"RA_OF_ASC_NODE":259.3346,"ARG_OF_PERICENTER":62.5453,"MEAN_ANOMALY":297.5616,"EPHEMERIS_TYPE":0,"CLASSIFICATION_TYPE":"U","NORAD_CAT_ID":64500,"ELEMENT_SET_NO":999,"REV_AT_EPOCH":3919,"BSTAR":0.00063368,"MEAN_MOTION_DOT":4.612e-5,"MEAN_MOTION_DDOT":0},{"OBJECT_NAME":"KUIPER-00040","OBJECT_ID":"2025-134B","EPOCH":"2026-03-03T19:26:49.241760","MEAN_MOTION":14.79940246,"ECCENTRICITY":0.0013009,"INCLINATION":51.8987,"RA_OF_ASC_NODE":270.2329,"ARG_OF_PERICENTER":245.8032,"MEAN_ANOMALY":114.1571,"EPHEMERIS_TYPE":0,"CLASSIFICATION_TYPE":"U","NORAD_CAT_ID":64501,"ELEMENT_SET_NO":999,"REV_AT_EPOCH":3904,"BSTAR":0.0011834,"MEAN_MOTION_DOT":8.823e-5,"MEAN_MOTION_DDOT":0},{"OBJECT_NAME":"KUIPER-00041","OBJECT_ID":"2025-134C","EPOCH":"2026-03-02T19:12:43.524000","MEAN_MOTION":14.78691298,"ECCENTRICITY":0.00070895,"INCLINATION":51.8985,"RA_OF_ASC_NODE":276.0926,"ARG_OF_PERICENTER":241.9402,"MEAN_ANOMALY":118.0844,"EPHEMERIS_TYPE":0,"CLASSIFICATION_TYPE":"U","NORAD_CAT_ID":64502,"ELEMENT_SET_NO":999,"REV_AT_EPOCH":3887,"BSTAR":0.00055429749,"MEAN_MOTION_DOT":3.886e-5,"MEAN_MOTION_DDOT":0},{"OBJECT_NAME":"KUIPER-00042","OBJECT_ID":"2025-134D","EPOCH":"2026-03-03T00:03:41.336064","MEAN_MOTION":14.79872098,"ECCENTRICITY":0.00073878,"INCLINATION":51.8989,"RA_OF_ASC_NODE":271.1637,"ARG_OF_PERICENTER":257.3465,"MEAN_ANOMALY":102.6672,"EPHEMERIS_TYPE":0,"CLASSIFICATION_TYPE":"U","NORAD_CAT_ID":64503,"ELEMENT_SET_NO":999,"REV_AT_EPOCH":3896,"BSTAR":-0.0006328881,"MEAN_MOTION_DOT":-5.039e-5,"MEAN_MOTION_DDOT":0},{"OBJECT_NAME":"KUIPER-00043","OBJECT_ID":"2025-134E","EPOCH":"2026-03-03T17:40:03.115488","MEAN_MOTION":14.83786115,"ECCENTRICITY":9.24e-5,"INCLINATION":51.8998,"RA_OF_ASC_NODE":259.5065,"ARG_OF_PERICENTER":315.9393,"MEAN_ANOMALY":44.1497,"EPHEMERIS_TYPE":0,"CLASSIFICATION_TYPE":"U","NORAD_CAT_ID":64504,"ELEMENT_SET_NO":999,"REV_AT_EPOCH":3919,"BSTAR":0.00066892,"MEAN_MOTION_DOT":5.369e-5,"MEAN_MOTION_DDOT":0},{"OBJECT_NAME":"KUIPER-00044","OBJECT_ID":"2025-134F","EPOCH":"2026-03-03T17:45:33.765696","MEAN_MOTION":14.79965905,"ECCENTRICITY":0.0007912,"INCLINATION":51.8979,"RA_OF_ASC_NODE":272.9004,"ARG_OF_PERICENTER":257.5811,"MEAN_ANOMALY":102.4266,"EPHEMERIS_TYPE":0,"CLASSIFICATION_TYPE":"U","NORAD_CAT_ID":64505,"ELEMENT_SET_NO":999,"REV_AT_EPOCH":3900,"BSTAR":-0.00088172,"MEAN_MOTION_DOT":-6.947e-5,"MEAN_MOTION_DDOT":0},{"OBJECT_NAME":"KUIPER-00046","OBJECT_ID":"2025-134G","EPOCH":"2026-03-03T19:29:05.244000","MEAN_MOTION":14.79940918,"ECCENTRICITY":7.35e-5,"INCLINATION":51.8972,"RA_OF_ASC_NODE":269.0433,"ARG_OF_PERICENTER":112.5565,"MEAN_ANOMALY":247.5475,"EPHEMERIS_TYPE":0,"CLASSIFICATION_TYPE":"U","NORAD_CAT_ID":64506,"ELEMENT_SET_NO":999,"REV_AT_EPOCH":3906,"BSTAR":0.00065979,"MEAN_MOTION_DOT":4.813e-5,"MEAN_MOTION_DDOT":0},{"OBJECT_NAME":"KUIPER-00047","OBJECT_ID":"2025-134H","EPOCH":"2026-03-03T16:32:27.577248","MEAN_MOTION":14.77237824,"ECCENTRICITY":0.0002614,"INCLINATION":51.8981,"RA_OF_ASC_NODE":242.2679,"ARG_OF_PERICENTER":121.7537,"MEAN_ANOMALY":238.3679,"EPHEMERIS_TYPE":0,"CLASSIFICATION_TYPE":"U","NORAD_CAT_ID":64507,"ELEMENT_SET_NO":999,"REV_AT_EPOCH":3942,"BSTAR":0.00067587,"MEAN_MOTION_DOT":4.621e-5,"MEAN_MOTION_DDOT":0},{"OBJECT_NAME":"KUIPER-00048","OBJECT_ID":"2025-134J","EPOCH":"2026-03-03T16:57:18.855072","MEAN_MOTION":14.79935653,"ECCENTRICITY":9.6e-5,"INCLINATION":51.8974,"RA_OF_ASC_NODE":242.0361,"ARG_OF_PERICENTER":106.554,"MEAN_ANOMALY":253.5528,"EPHEMERIS_TYPE":0,"CLASSIFICATION_TYPE":"U","NORAD_CAT_ID":64508,"ELEMENT_SET_NO":999,"REV_AT_EPOCH":3943,"BSTAR":0.00011789,"MEAN_MOTION_DOT":6.78e-6,"MEAN_MOTION_DDOT":0},{"OBJECT_NAME":"KUIPER-00049","OBJECT_ID":"2025-134K","EPOCH":"2026-03-03T18:00:01.999296","MEAN_MOTION":14.83182647,"ECCENTRICITY":0.0001538,"INCLINATION":51.8986,"RA_OF_ASC_NODE":255.2107,"ARG_OF_PERICENTER":114.4417,"MEAN_ANOMALY":256.1771,"EPHEMERIS_TYPE":0,"CLASSIFICATION_TYPE":"U","NORAD_CAT_ID":64509,"ELEMENT_SET_NO":999,"REV_AT_EPOCH":359,"BSTAR":-0.0015424,"MEAN_MOTION_DOT":-0.00012914,"MEAN_MOTION_DDOT":0},{"OBJECT_NAME":"KUIPER-00050","OBJECT_ID":"2025-134L","EPOCH":"2026-03-03T16:26:29.330880","MEAN_MOTION":14.9721734,"ECCENTRICITY":0.0005624,"INCLINATION":51.8907,"RA_OF_ASC_NODE":239.239,"ARG_OF_PERICENTER":298.118,"MEAN_ANOMALY":61.9221,"EPHEMERIS_TYPE":0,"CLASSIFICATION_TYPE":"U","NORAD_CAT_ID":64510,"ELEMENT_SET_NO":999,"REV_AT_EPOCH":3947,"BSTAR":8.1684e-5,"MEAN_MOTION_DOT":6.96e-6,"MEAN_MOTION_DDOT":0},{"OBJECT_NAME":"KUIPER-00051","OBJECT_ID":"2025-134M","EPOCH":"2026-03-03T18:16:38.090208","MEAN_MOTION":14.83717895,"ECCENTRICITY":7.87e-5,"INCLINATION":51.9003,"RA_OF_ASC_NODE":252.1486,"ARG_OF_PERICENTER":106.8311,"MEAN_ANOMALY":253.2739,"EPHEMERIS_TYPE":0,"CLASSIFICATION_TYPE":"U","NORAD_CAT_ID":64511,"ELEMENT_SET_NO":999,"REV_AT_EPOCH":3929,"BSTAR":0.00074343,"MEAN_MOTION_DOT":5.983e-5,"MEAN_MOTION_DDOT":0},{"OBJECT_NAME":"KUIPER-00053","OBJECT_ID":"2025-134P","EPOCH":"2026-03-03T16:45:40.004352","MEAN_MOTION":14.79918317,"ECCENTRICITY":9.4e-5,"INCLINATION":51.9006,"RA_OF_ASC_NODE":249.5893,"ARG_OF_PERICENTER":139.6892,"MEAN_ANOMALY":220.414,"EPHEMERIS_TYPE":0,"CLASSIFICATION_TYPE":"U","NORAD_CAT_ID":64513,"ELEMENT_SET_NO":999,"REV_AT_EPOCH":3932,"BSTAR":0.00056873,"MEAN_MOTION_DOT":4.116e-5,"MEAN_MOTION_DDOT":0},{"OBJECT_NAME":"KUIPER-00054","OBJECT_ID":"2025-134Q","EPOCH":"2026-03-03T16:53:49.262496","MEAN_MOTION":14.79927051,"ECCENTRICITY":3.08e-5,"INCLINATION":51.8975,"RA_OF_ASC_NODE":244.5375,"ARG_OF_PERICENTER":127.3433,"MEAN_ANOMALY":232.7557,"EPHEMERIS_TYPE":0,"CLASSIFICATION_TYPE":"U","NORAD_CAT_ID":64514,"ELEMENT_SET_NO":999,"REV_AT_EPOCH":3939,"BSTAR":0.00066313,"MEAN_MOTION_DOT":4.837e-5,"MEAN_MOTION_DDOT":0},{"OBJECT_NAME":"KUIPER-00055","OBJECT_ID":"2025-134R","EPOCH":"2026-03-03T14:12:32.038272","MEAN_MOTION":15.20283943,"ECCENTRICITY":4.09e-5,"INCLINATION":51.8877,"RA_OF_ASC_NODE":208.4921,"ARG_OF_PERICENTER":326.0532,"MEAN_ANOMALY":34.0421,"EPHEMERIS_TYPE":0,"CLASSIFICATION_TYPE":"U","NORAD_CAT_ID":64515,"ELEMENT_SET_NO":999,"REV_AT_EPOCH":3989,"BSTAR":0.0010765,"MEAN_MOTION_DOT":0.00023443,"MEAN_MOTION_DDOT":0},{"OBJECT_NAME":"KUIPER-00056","OBJECT_ID":"2025-134S","EPOCH":"2026-03-03T18:05:13.476480","MEAN_MOTION":14.83482761,"ECCENTRICITY":9.62e-5,"INCLINATION":51.9015,"RA_OF_ASC_NODE":249.5835,"ARG_OF_PERICENTER":59.8663,"MEAN_ANOMALY":300.2396,"EPHEMERIS_TYPE":0,"CLASSIFICATION_TYPE":"U","NORAD_CAT_ID":64516,"ELEMENT_SET_NO":999,"REV_AT_EPOCH":3933,"BSTAR":0.00072686,"MEAN_MOTION_DOT":5.811e-5,"MEAN_MOTION_DDOT":0},{"OBJECT_NAME":"KUIPER-00057","OBJECT_ID":"2025-134T","EPOCH":"2026-03-03T13:07:01.513920","MEAN_MOTION":14.83706964,"ECCENTRICITY":0.0004067,"INCLINATION":51.8982,"RA_OF_ASC_NODE":258.0036,"ARG_OF_PERICENTER":250.7992,"MEAN_ANOMALY":109.2532,"EPHEMERIS_TYPE":0,"CLASSIFICATION_TYPE":"U","NORAD_CAT_ID":64517,"ELEMENT_SET_NO":999,"REV_AT_EPOCH":3919,"BSTAR":0.00028896,"MEAN_MOTION_DOT":2.183e-5,"MEAN_MOTION_DDOT":0},{"OBJECT_NAME":"KUIPER-00058","OBJECT_ID":"2025-134U","EPOCH":"2026-03-03T18:19:16.241088","MEAN_MOTION":14.79938522,"ECCENTRICITY":6.5e-5,"INCLINATION":51.8996,"RA_OF_ASC_NODE":251.7416,"ARG_OF_PERICENTER":117.1113,"MEAN_ANOMALY":242.9916,"EPHEMERIS_TYPE":0,"CLASSIFICATION_TYPE":"U","NORAD_CAT_ID":64518,"ELEMENT_SET_NO":999,"REV_AT_EPOCH":3930,"BSTAR":0.00070682,"MEAN_MOTION_DOT":5.172e-5,"MEAN_MOTION_DDOT":0},{"OBJECT_NAME":"KUIPER-00059","OBJECT_ID":"2025-134V","EPOCH":"2026-03-03T16:49:34.281408","MEAN_MOTION":14.79905121,"ECCENTRICITY":0.0001363,"INCLINATION":51.8986,"RA_OF_ASC_NODE":247.067,"ARG_OF_PERICENTER":136.2846,"MEAN_ANOMALY":223.8224,"EPHEMERIS_TYPE":0,"CLASSIFICATION_TYPE":"U","NORAD_CAT_ID":64519,"ELEMENT_SET_NO":999,"REV_AT_EPOCH":3936,"BSTAR":0.00066255,"MEAN_MOTION_DOT":4.83e-5,"MEAN_MOTION_DDOT":0}]
